JILIN-1 GAOFEN 3A       
1 44312U 19032C   26068.74542089  .00016264  00000+0  55381-3 0  9993
2 44312  44.9746 183.2861 0002618 111.2900 248.8263 15.30271310372592
STARLINK-34635          
1 64761U 25147G   26068.75174971  .00022343  00000+0  76430-3 0  9992
2 64761  53.1591 242.2950 0000686  72.7511 287.3564 15.30196292 38764
